Package Id,Company,Full Name2,Address 1, Address 2,City,State,Zip,Country,Cost Center Id,Reference 1,Reference 2,Reference 3,Reference 4,
-101,The Iron Throne,"Aegon I, 'The Conquerer' Targaryen",1 Westeros Way,,Kings Landing,CL,123456,WS,,,,,
10-2,The Iron Throne,Aenys I Targaryen,2 Westeros Way,,Kings Landing,CL,2345,WS,,,,,
103<,The Iron Throne,Maegor I Targaryen,3 Westeros Way,,Kings Landing,CL,12345,WS,,,,,
104,The Iron Throne,Jaehaerys I Targaryen,4 Westeros Way,,Kings Landing,CL,12345-1234,WS,,,,,
105,The Iron Throne,Viserys I Targaryen,5 Westeros Way,,Kings Landing,CL,12345,WS,,,,,
106,The Iron Throne,Aegon II Targaryen,6 Westeros Way,,Kings Landing,CL,2345,WS,,,,,
107,The Iron Throne,Rhaenyra Targaryen,7 Westeros Way,,Kings Landing,CL,12345,WS,,,,,
108,The Iron Throne,Aegon III Targaryen,8 Westeros Way,,Kings Landing,CL,12345,WS,,,,,
109,The Iron Throne,Daeron I Targaryen,9 Westeros Way,,Kings Landing,CL,12345,WS,,,,,
110,The Iron Throne,Baelor I Targaryen,10 Westeros Way,,Kings Landing,CL,12345,WS,,,,,
111,The Iron Throne,Viserys II Targaryen,11 Westeros Way,,Kings Landing,CL,12345,WS,,,,,
112,The Iron Throne,Aegon IV Targaryen,12 Westeros Way,,Kings Landing,CL,12345,WS,,,,,
113,The Iron Throne,Daeron II Targaryen,13 Westeros Way,,Kings Landing,CL,12345,WS,,,,,
114,The Iron Throne,Aerys I Targaryen,14 Westeros Way,,Kings Landing,CL,1234,WS,,,,,
115,The Iron Throne,Maekar I Targaryen,15 Westeros Way,,Kings Landing,CL,12345,WS,,,,,
116,The Iron Throne,Aegon V Targaryen,16 Westeros Way,,Kings Landing,CL,12345,WS,,,,,
117,The Iron Throne,Daemon I Blackfyre ,17 Westeros Way,,Kings Landing,CL,12345,WS,,,,,
118,The Iron Throne,Daemon II Blackfyre ,18 Westeros Way,,Kings Landing,CL,12345,WS,,,,,
126,The Seastone Chair,Balon Greyjoy,565 @()helat?,,Pike,IR,66666,WS,,,,,
127,Winterfell,Robb Stark,437 KINGINDàNORF STREET,,Winterfell,NO,22823,WS,,,,,
128,Storm's End,Renly Baratheon, 71 ? €æß•…,,Storm's End,SL,90210,WS,,,,,
119,The Iron Throne,Maelys I Blackfyre ,19 Westeros Way,,Kings Landing,CL,12345,WS,,,,,
120,The Iron Throne,Jaehaerys II Targaryen,20 Westeros Way,,Kings Landing,CL,12345,WS,,,,,
121,The Iron Throne,Aerys II Targaryen,21 Westeros Way,,Kings Landing,CL,12345,WS,,,,,
122,The Iron Throne,Aegon VI Targaryen,22 Westeros Way,,Kings Landing,CL,12345,WS,,,,,
123,The Iron Throne,Robert Baratheon ,23 Westeros Way,,Kings Landing,CL,12345,WS,,,,,
124,The Iron Throne,Joffery Baratheon ,24 Westeros Way,,Kings Landing,CL,12345,WS,,,,,
125,The Iron Throne,Tommen Baratheon ,25 Westeros Way,,Kings Landing,CL,12345,WS,,,,,
127,The Cusioned Throne,Daenerys Targaryen,27777 Mo Rezznak Mo Problems Knotted Loop,,Meereen,SB,6584,ES,,,,,
126,The Iron Throne,Jon Snow ,26 Westeros Way,,Kings Landing,CL,12345,WS,,,,,
